PRAETORIAN SDA_613      
1 65576U 25203M   26159.09075193  .00000048  00000+0  33289-4 0  9998
2 65576  81.3006  19.3359 0005105 210.2592 149.8269 13.82764398 37427
PRAETORIAN SDA_614      
1 65577U 25203N   26159.00376286  .00000060  00000+0  42988-4 0  9997
2 65577  81.3020  19.1108 0006559 209.8945 150.1838 13.84777761 37443
PRAETORIAN SDA_615      
1 65578U 25203P   26159.12292417  .00000170  00000+0  14127-3 0  9999
2 65578  81.3027  18.9586 0008429 211.3363 148.7293 13.84436068 37459
PRAETORIAN SDA_616      
1 65579U 25203Q   26159.08652509  .00000152  00000+0  12766-3 0  9994
2 65579  81.3070  19.4893 0004787 219.5695 140.5112 13.83267093 37422
PRAETORIAN SDA_617      
1 65580U 25203R   26159.10735445  .00000054  00000+0  38952-4 0  9997
2 65580  81.3043  19.3019 0006790 210.2050 149.8716 13.83149936 37430
PRAETORIAN SDA_618      
1 65581U 25203S   26159.09050048  .00000125  00000+0  10044-3 0  9995
2 65581  81.3029  18.9221 0009110 213.7845 146.2733 13.84668880 37451
PRAETORIAN SDA_619      
1 65582U 25203T   26159.12077432  .00000131  00000+0  10777-3 0  9996
2 65582  81.3050  19.1766 0007587 211.5122 148.5581 13.83805249 38079
PRAETORIAN SDA_620      
1 65583U 25203U   26159.14753596  .00000158  00000+0  13275-3 0  9996
2 65583  81.3039  19.1710 0007111 206.3710 153.7085 13.83617435 37449
PRAETORIAN SDA_621      
1 65584U 25203V   26159.12251854  .00000086  00000+0  66642-4 0  9992
2 65584  81.3027  19.1158 0006896 204.3247 155.7585 13.83800726 37449
PRAETORIAN SDA_601      
1 65585U 25203W   26159.08900198  .00000024  00000+0  11167-4 0  9994
2 65585  81.3049  19.4330 0004760 223.6759 136.4021 13.83166900 37427
NUSANTARA LIMA (NUSANT*)
1 65588U 25205A   26159.29476106 -.00000342  00000+0  00000+0 0  9992
2 65588   0.0287 147.7843 0000388 313.6223  14.2473  1.00270960  2631
COSMOS 2595 (MOZHAETS 6)
1 65589U 25206A   26157.96259561 -.00000030  00000+0  00000+0 0  9994
2 65589  64.6449 315.1932 0065734 305.2385  54.1449  2.14901318  5734
COSMOS 2596 [GLONASS-K1]
1 65590U 25206B   26159.06781030 -.00000031  00000+0  00000+0 0  9991
2 65590  64.6401 315.3034 0011123 313.1378  43.1646  2.13100758  5715
STARLINK-35267          
1 65592U 25207A   26159.18079742 -.00018151  00000+0 -12573-2 0  9991
2 65592  97.3914 227.0889 0002117 143.5253 216.6119 15.05644967 41864
STARLINK-35269          
1 65593U 25207B   26159.14758141  .00004034  00000+0  28346-3 0  9994
2 65593  97.3892 227.1347 0001513 144.1615 215.9714 15.05650474 41861
STARLINK-35191          
1 65594U 25207C   26159.16419582  .00007733  00000+0  53931-3 0  9997
2 65594  97.3882 227.1100 0001375 127.7604 232.3748 15.05655962 41709
STARLINK-35261          
1 65595U 25207D   26159.19743346 -.00017435  00000+0 -12080-2 0  9990
2 65595  97.3928 227.2245 0002514 152.5479 207.5882 15.05625863 41883
STARLINK-35253          
1 65596U 25207E   26159.17250223  .00003585  00000+0  25231-3 0  9998
2 65596  97.3859 227.1014 0001992 135.3640 224.7748 15.05656596 41663
STARLINK-35263          
1 65597U 25207F   26159.22234634  .00004337  00000+0  30431-3 0  9997
2 65597  97.3848 227.1917 0001625 145.7438 214.3895 15.05661684 41883
STARLINK-35248          
1 65598U 25207G   26159.13927816  .00002253  00000+0  16004-3 0  9994
2 65598  97.3867 227.1470 0001781 127.1985 232.9406 15.05656486 41870
STARLINK-35245          
1 65599U 25207H   26159.18912605  .00004429  00000+0  31072-3 0  9999
2 65599  97.3858 227.2367 0002004 125.9125 234.2288 15.05658158 41880
STARLINK-35229          
1 65600U 25207J   26159.17803842  .00003151  00000+0  22225-3 0  9994
2 65600  97.3854 227.0932 0002107 129.1329 231.0086 15.05656679 41877
STARLINK-35234          
1 65601U 25207K   26159.16973262  .00003712  00000+0  26111-3 0  9999
2 65601  97.3862 227.1048 0001596  91.7477 268.3933 15.05657773 41875
STARLINK-35255          
1 65602U 25207L   26159.15314050  .00011065  00000+0  76979-3 0  9990
2 65602  97.3861 227.1291 0000573  97.6228 262.5064 15.05645067 41872
STARLINK-35250          
1 65603U 25207M   26159.20296771  .00003224  00000+0  22734-3 0  9994
2 65603  97.3865 227.2154 0001663 145.0503 215.0834 15.05654488 41887
STARLINK-35251          
1 65604U 25207N   26159.15865803  .00001929  00000+0  13761-3 0  9997
2 65604  97.3878 227.1211 0000968  85.8511 274.2827 15.05658188 41871
STARLINK-35171          
1 65605U 25207P   26159.21127423 -.00001566  00000+0 -10457-3 0  9992
2 65605  97.3888 227.2055 0001165 128.4815 231.6517 15.05649236 41722
STARLINK-35195          
1 65606U 25207Q   26159.18635746  .00004243  00000+0  29782-3 0  9995
2 65606  97.3860 227.2407 0001996 106.3489 253.7958 15.05658015 41884
STARLINK-35156          
1 65607U 25207R   26159.19189961  .00006471  00000+0  45182-3 0  9997
2 65607  97.3861 227.2318 0002666 119.9859 240.1633 15.05670902 41882
STARLINK-35185          
1 65608U 25207S   26159.15034443  .00000183  00000+0  16672-4 0  9995
2 65608  97.3877 227.1321 0001610 119.7136 240.4252 15.05647892 41878
